{
  "type": "FeatureCollection",
  "features": [
    {
      "type": "Feature",
      "properties": {
        "norad_id": 43783,
        "name": "KAZSTSAT",
        "group": "resource",
        "lat": 12.73827444512788,
        "lon": -147.286126725973,
        "alt_km": 572.3113769928977,
        "timestamp": "2025-12-22T05:49:03.140035+00:00",
        "meta_object_name": "KAZSTSAT",
        "meta_object_id": "2018-099AB",
        "meta_epoch": "2025-12-21T01:50:44.888352",
        "meta_mean_motion": 14.99364891,
        "meta_eccentricity": 0.00060238,
        "meta_inclination": 97.4527,
        "meta_ra_of_asc_node": 29.903,
        "meta_arg_of_pericenter": 292.687,
        "meta_mean_anomaly": 67.3717,
        "meta_ephemeris_type": 0,
        "meta_classification_type": "U",
        "meta_norad_cat_id": 43783,
        "meta_element_set_no": 999,
        "meta_rev_at_epoch": 38461,
        "meta_bstar": 1.8043656e-05,
        "meta_mean_motion_dot": 1.65e-06,
        "meta_mean_motion_ddot": 0,
        "tle_line1": "1 43783U 18099AB  25355.07690843  .00000165  00000+0  18044-4 0  9991",
        "tle_line2": "2 43783  97.4527  29.9030 0006023 292.6870  67.3717 14.99364891384616"
      },
      "geometry": {
        "type": "Point",
        "coordinates": [
          -147.286126725973,
          12.73827444512788
        ]
      }
    },
    {
      "type": "Feature",
      "properties": {
        "norad_id": 43831,
        "name": "SAUDISAT 5A",
        "group": "resource",
        "lat": 39.398275005462075,
        "lon": 50.17771323394736,
        "alt_km": 477.84276922519894,
        "timestamp": "2025-12-22T05:49:03.140045+00:00",
        "meta_object_name": "SAUDISAT 5A",
        "meta_object_id": "2018-102A",
        "meta_epoch": "2025-12-21T20:12:00.356256",
        "meta_mean_motion": 15.25759397,
        "meta_eccentricity": 0.0011309,
        "meta_inclination": 97.3339,
        "meta_ra_of_asc_node": 55.8572,
        "meta_arg_of_pericenter": 48.0879,
        "meta_mean_anomaly": 312.1321,
        "meta_ephemeris_type": 0,
        "meta_classification_type": "U",
        "meta_norad_cat_id": 43831,
        "meta_element_set_no": 999,
        "meta_rev_at_epoch": 38861,
        "meta_bstar": 0.00020675,
        "meta_mean_motion_dot": 5.215e-05,
        "meta_mean_motion_ddot": 0,
        "tle_line1": "1 43831U 18102A   25355.84167079  .00005215  00000+0  20675-3 0  9998",
        "tle_line2": "2 43831  97.3339  55.8572 0011309  48.0879 312.1321 15.25759397388619"
      },
      "geometry": {
        "type": "Point",
        "coordinates": [
          50.17771323394736,
          39.398275005462075
        ]
      }
    },
    {
      "type": "Feature",
      "properties": {
        "norad_id": 43833,
        "name": "SAUDISAT 5B",
        "group": "resource",
        "lat": 74.00911997426653,
        "lon": -94.24888729011528,
        "alt_km": 475.7064449736308,
        "timestamp": "2025-12-22T05:49:03.140056+00:00",
        "meta_object_name": "SAUDISAT 5B",
        "meta_object_id": "2018-102C",
        "meta_epoch": "2025-12-21T19:55:17.995296",
        "meta_mean_motion": 15.26107565,
        "meta_eccentricity": 0.0012051,
        "meta_inclination": 97.3435,
        "meta_ra_of_asc_node": 58.6007,
        "meta_arg_of_pericenter": 50.1544,
        "meta_mean_anomaly": 310.0753,
        "meta_ephemeris_type": 0,
        "meta_classification_type": "U",
        "meta_norad_cat_id": 43833,
        "meta_element_set_no": 999,
        "meta_rev_at_epoch": 38872,
        "meta_bstar": 0.00019149,
        "meta_mean_motion_dot": 4.876e-05,
        "meta_mean_motion_ddot": 0,
        "tle_line1": "1 43833U 18102C   25355.83006939  .00004876  00000+0  19149-3 0  9992",
        "tle_line2": "2 43833  97.3435  58.6007 0012051  50.1544 310.0753 15.26107565388723"
      },
      "geometry": {
        "type": "Point",
        "coordinates": [
          -94.24888729011528,
          74.00911997426653
        ]
      }
    },
    {
      "type": "Feature",
      "properties": {
        "norad_id": 44622,
        "name": "GAOFEN-10R",
        "group": "resource",
        "lat": 10.0563163888087,
        "lon": -57.64817758295298,
        "alt_km": 616.9824728716112,
        "timestamp": "2025-12-22T05:49:03.140066+00:00",
        "meta_object_name": "GAOFEN-10R",
        "meta_object_id": "2019-066A",
        "meta_epoch": "2025-12-21T20:03:17.298432",
        "meta_mean_motion": 14.82820301,
        "meta_eccentricity": 0.0007257,
        "meta_inclination": 98.0291,
        "meta_ra_of_asc_node": 303.3778,
        "meta_arg_of_pericenter": 15.2959,
        "meta_mean_anomaly": 344.8472,
        "meta_ephemeris_type": 0,
        "meta_classification_type": "U",
        "meta_norad_cat_id": 44622,
        "meta_element_set_no": 999,
        "meta_rev_at_epoch": 33609,
        "meta_bstar": 0.00016148,
        "meta_mean_motion_dot": 1.252e-05,
        "meta_mean_motion_ddot": 0,
        "tle_line1": "1 44622U 19066A   25355.83561688  .00001252  00000+0  16148-3 0  9997",
        "tle_line2": "2 44622  98.0291 303.3778 0007257  15.2959 344.8472 14.82820301336094"
      },
      "geometry": {
        "type": "Point",
        "coordinates": [
          -57.64817758295298,
          10.0563163888087
        ]
      }
    },
    {
      "type": "Feature",
      "properties": {
        "norad_id": 44804,
        "name": "CARTOSAT-3",
        "group": "resource",
        "lat": -24.049639793618137,
        "lon": 59.05616223988022,
        "alt_km": 511.6971658825305,
        "timestamp": "2025-12-22T05:49:03.140076+00:00",
        "meta_object_name": "CARTOSAT-3",
        "meta_object_id": "2019-081A",
        "meta_epoch": "2025-12-21T20:26:21.878304",
        "meta_mean_motion": 15.19218003,
        "meta_eccentricity": 0.0013816,
        "meta_inclination": 97.4573,
        "meta_ra_of_asc_node": 55.3193,
        "meta_arg_of_pericenter": 54.4922,
        "meta_mean_anomaly": 305.7599,
        "meta_ephemeris_type": 0,
        "meta_classification_type": "U",
        "meta_norad_cat_id": 44804,
        "meta_element_set_no": 999,
        "meta_rev_at_epoch": 33654,
        "meta_bstar": 9.934e-05,
        "meta_mean_motion_dot": 2.027e-05,
        "meta_mean_motion_ddot": 0,
        "tle_line1": "1 44804U 19081A   25355.85164211  .00002027  00000+0  99340-4 0  9996",
        "tle_line2": "2 44804  97.4573  55.3193 0013816  54.4922 305.7599 15.19218003336547"
      },
      "geometry": {
        "type": "Point",
        "coordinates": [
          59.05616223988022,
          -24.049639793618137
        ]
      }
    },
    {
      "type": "Feature",
      "properties": {
        "norad_id": 44819,
        "name": "GAOFEN-12 01",
        "group": "resource",
        "lat": -23.7189882152354,
        "lon": 178.8157057191563,
        "alt_km": 631.4388308986763,
        "timestamp": "2025-12-22T05:49:03.140087+00:00",
        "meta_object_name": "GAOFEN-12 01",
        "meta_object_id": "2019-082A",
        "meta_epoch": "2025-12-21T20:47:25.237248",
        "meta_mean_motion": 14.80667198,
        "meta_eccentricity": 0.0001931,
        "meta_inclination": 97.8122,
        "meta_ra_of_asc_node": 1.9077,
        "meta_arg_of_pericenter": 189.9561,
        "meta_mean_anomaly": 170.1614,
        "meta_ephemeris_type": 0,
        "meta_classification_type": "U",
        "meta_norad_cat_id": 44819,
        "meta_element_set_no": 999,
        "meta_rev_at_epoch": 32785,
        "meta_bstar": 5.7489e-05,
        "meta_mean_motion_dot": 3.91e-06,
        "meta_mean_motion_ddot": 0,
        "tle_line1": "1 44819U 19082A   25355.86626432  .00000391  00000+0  57489-4 0  9992",
        "tle_line2": "2 44819  97.8122   1.9077 0001931 189.9561 170.1614 14.80667198327859"
      },
      "geometry": {
        "type": "Point",
        "coordinates": [
          178.8157057191563,
          -23.7189882152354
        ]
      }
    },
    {
      "type": "Feature",
      "properties": {
        "norad_id": 44873,
        "name": "CSG-1",
        "group": "resource",
        "lat": 5.552364304886602,
        "lon": 176.65165330770083,
        "alt_km": 624.604710762701,
        "timestamp": "2025-12-22T05:49:03.140097+00:00",
        "meta_object_name": "CSG-1",
        "meta_object_id": "2019-092A",
        "meta_epoch": "2025-12-21T20:04:14.810592",
        "meta_mean_motion": 14.82151597,
        "meta_eccentricity": 0.0001473,
        "meta_inclination": 97.8803,
        "meta_ra_of_asc_node": 177.0233,
        "meta_arg_of_pericenter": 85.5065,
        "meta_mean_anomaly": 274.6316,
        "meta_ephemeris_type": 0,
        "meta_classification_type": "U",
        "meta_norad_cat_id": 44873,
        "meta_element_set_no": 999,
        "meta_rev_at_epoch": 32520,
        "meta_bstar": 6.5073e-05,
        "meta_mean_motion_dot": 4.66e-06,
        "meta_mean_motion_ddot": 0,
        "tle_line1": "1 44873U 19092A   25355.83628253  .00000466  00000+0  65073-4 0  9994",
        "tle_line2": "2 44873  97.8803 177.0233 0001473  85.5065 274.6316 14.82151597325204"
      },
      "geometry": {
        "type": "Point",
        "coordinates": [
          176.65165330770083,
          5.552364304886602
        ]
      }
    }
  ]
}